{
  "last_updated": "2026-04-27T06:00:02.484955",
  "satellites": {
    "98592": {
      "name": "DUTHSat-2",
      "norad_id": "98592",
      "tle": "1 64530U 25135C   26116.86118734  .00014569  00000-0  57421-3 0  9995\n2 64530  97.4551 232.8618 0004713  27.0303 333.1180 15.25678280 47106",
      "epoch": "2026-04-26T20:40:06.586176",
      "fetched_at": "2026-04-27T06:00:02.647798",
      "source": "satnogs"
    },
    "98530": {
      "name": "LAMARR",
      "norad_id": "98530",
      "tle": "1 66673U 25276H   26026.90917087  .00034524  00000-0  16680-2 0  9998\n2 66673  97.4301 102.8338 0007597 141.5941 218.5835 15.18529012  8972",
      "epoch": "2026-01-26T21:49:12.363168",
      "fetched_at": "2026-01-28T06:00:02.884758",
      "source": "satnogs",
      "note": "Using previous TLE (fetch/manual failed today)"
    },
    "98529": {
      "name": "DIRAC",
      "norad_id": "98529",
      "tle": "1 66681U 25276R   26026.63281774  .00024563  00000-0  11745-2 0  9993\n2 66681  97.4280 102.5712 0006320 148.4115 211.7500 15.18972786  8932",
      "epoch": "2026-01-26T15:11:15.452736",
      "fetched_at": "2026-01-28T06:00:02.937152",
      "source": "satnogs",
      "note": "Using previous TLE (fetch/manual failed today)"
    },
    "98518": {
      "name": "MICE-1",
      "norad_id": "98518",
      "tle": "1 66684U 25276U   26116.66498316  .00004402  00000-0  21470-3 0  9998\n2 66684  97.4286 191.1621 0006144 158.3085 201.8411 15.18811519 22599",
      "epoch": "2026-04-26T15:57:34.545024",
      "fetched_at": "2026-04-27T06:00:02.961650",
      "source": "satnogs"
    },
    "68416": {
      "name": "PeakSat",
      "norad_id": "68416",
      "tle": "1 68416U 26067A   26115.59405905  .00006923  00000-0  33611-3 0  9995\n2 68416  97.4506  74.8718 0004240  93.7560 266.4159 15.18776562  3962",
      "epoch": "2026-04-25T14:15:26.701920",
      "fetched_at": "2026-04-27T06:00:03.026884",
      "source": "satnogs"
    },
    "98370": {
      "name": "OptiSat",
      "norad_id": "98370",
      "tle": "1 69696U 69696    26089.46895426  .00000000  00000-0  00000-0 0 00004\n2 69696 097.4414 038.3720 0003145 156.7651 191.1423 15.18459822000011",
      "epoch": "2026-03-30T11:15:17.648064",
      "fetched_at": "2026-04-17T12:47:18.541523",
      "source": "manual"
    },
    "68468": {
      "name": "ERMIS-1",
      "norad_id": "68468",
      "tle": "1 68468U 26067BE  26115.56218655  .00009301  00000-0  47604-3 0  9993\n2 68468  97.4520  74.7673 0005039 228.9633 131.1166 15.16826960  3955",
      "epoch": "2026-04-25T13:29:32.917920",
      "fetched_at": "2026-04-27T06:00:03.106959",
      "source": "satnogs"
    },
    "68420": {
      "name": "ERMIS-2",
      "norad_id": "68420",
      "tle": "1 68420U 26067E   26115.59532097  .00009852  00000-0  47689-3 0  9997\n2 68420  97.4446  74.8523 0003655  81.9989 278.1660 15.18766251  3968",
      "epoch": "2026-04-25T14:17:15.731808",
      "fetched_at": "2026-04-27T06:00:03.204749",
      "source": "satnogs"
    },
    "98367": {
      "name": "ERMIS-3",
      "norad_id": "98367",
      "tle": "1 68425U 26067K   26115.53631304  .00004885  00000-0  24177-3 0  9995\n2 68425  97.4550  74.8101 0002943 119.0473 241.1056 15.18255509  3958",
      "epoch": "2026-04-25T12:52:17.446656",
      "fetched_at": "2026-04-27T06:00:03.287120",
      "source": "satnogs"
    }
  },
  "fetch_log": []
}